ONEWEB-0108             
1 48076U 21025AL  23308.80892241 -.00000053  00000+0 -18058-3 0  9999
2 48076  87.9000 150.3428 0001766  79.7870 280.3459 13.13468860128239
ONEWEB-0169             
1 48077U 21025AM  23309.06707309 -.00000032  00000+0 -12337-3 0  9990
2 48077  87.9000 150.2944 0001973  82.0462 278.0890 13.13468860128161
ONEWEB-0176             
1 48210U 21031A   23308.90015522 -.00008999  00000+0 -24366-1 0  9990
2 48210  87.8933 119.8584 0001578  89.0101 271.1210 13.14405705122819
ONEWEB-0184             
1 48211U 21031B   23309.17891856  .00009208  00000+0  24743-1 0  9994
2 48211  87.8945 119.7871 0000668  50.8519 309.2670 13.14598677122824
ONEWEB-0179             
1 48212U 21031C   23308.91920761 -.00004815  00000+0 -13051-1 0  9995
2 48212  87.8937 119.8339 0001916  99.4828 260.6518 13.14393007122837
ONEWEB-0180             
1 48213U 21031D   23309.18128768 -.00002648  00000+0 -71818-2 0  9991
2 48213  87.8943 119.7850 0001432  99.2860 260.8431 13.14468158122756
ONEWEB-0218             
1 48214U 21031E   23308.89818152 -.00015563  00000+0 -42187-1 0  9998
2 48214  87.8946 119.8433 0000376 102.8169 257.3002 13.14335421122871
ONEWEB-0209             
1 48215U 21031F   23308.88748640 -.00009382  00000+0 -25403-1 0  9996
2 48215  87.8936 119.8818 0001637  94.8895 265.2421 13.14406248122874
